OBJECT_NAME,OBJECT_ID,EPOCH,MEAN_MOTION,ECCENTRICITY,INCLINATION,RA_OF_ASC_NODE,ARG_OF_PERICENTER,MEAN_ANOMALY,EPHEMERIS_TYPE,CLASSIFICATION_TYPE,NORAD_CAT_ID,ELEMENT_SET_NO,REV_AT_EPOCH,BSTAR,MEAN_MOTION_DOT,MEAN_MOTION_DDOT
ONEWEB-0535,2022-138AL,2026-07-12T20:34:04.421568,13.19726326,.0001973,87.9195,299.8488,92.1245,268.0113,0,U,54147,999,18022,.20404E-4,.21E-6,0
ONEWEB-0536,2022-138AM,2026-07-13T04:53:56.538240,13.20772748,.0002811,87.9174,269.2705,82.6752,277.4700,0,U,54148,999,18273,-.10073E-3,-.28E-6,0
ONEWEB-0527,2022-166A,2026-07-12T12:50:18.884256,13.21827284,.00021318,87.9236,238.9522,97.9354,262.2022,0,U,54642,999,17488,.15506436E-3,.77E-6,0
ONEWEB-0528,2022-166B,2026-07-12T12:51:31.404960,13.21825889,.00021529,87.9239,238.9547,103.1151,257.0223,0,U,54643,999,17489,.20821845E-3,.99E-6,0
ONEWEB-0539,2022-166C,2026-07-12T22:51:01.075392,13.21824099,.0001871,87.9241,238.8457,95.1898,264.9450,0,U,54644,999,17494,.14706E-3,.74E-6,0
ONEWEB-0540,2022-166D,2026-07-12T15:44:54.098016,13.21824163,.0001931,87.9231,238.9333,94.6966,265.4389,0,U,54645,999,17489,-.15897E-3,-.53E-6,0
ONEWEB-0542,2022-166E,2026-07-12T23:05:34.664928,13.21826190,.0001756,87.9242,238.8425,93.6231,266.5104,0,U,54646,999,17494,.1005E-3,.55E-6,0
ONEWEB-0545,2022-166F,2026-07-12T13:09:42.020928,13.21825761,.0001582,87.9235,238.9345,86.5396,273.5919,0,U,54647,999,17485,.10291E-3,.56E-6,0
ONEWEB-0580,2022-166G,2026-07-12T16:11:20.001984,13.21823979,.0001809,87.9248,238.9065,87.8377,272.2964,0,U,54648,999,17491,-.62026E-4,-.13E-6,0
ONEWEB-0582,2022-166H,2026-07-12T15:22:52.819104,13.21853740,.0001991,87.9238,238.9082,88.4259,271.7103,0,U,54649,999,17488,.21228E-2,.89E-5,0
ONEWEB-0583,2022-166J,2026-07-12T15:39:52.764192,13.21826009,.0001958,87.9235,238.9294,94.8666,265.2691,0,U,54650,999,17489,-.40099E-5,.11E-6,0
ONEWEB-0584,2022-166K,2026-07-12T16:08:55.726080,13.21824640,.0002063,87.9236,238.9096,95.5210,264.6159,0,U,54651,999,17488,.12795E-4,.18E-6,0
ONEWEB-0585,2022-166L,2026-07-12T13:04:49.122336,13.21823682,.0002474,87.9253,238.9216,91.4713,268.6705,0,U,54652,999,17487,.18242E-3,.88E-6,0
ONEWEB-0586,2022-166M,2026-07-12T15:13:12.702720,13.21832731,.0002362,87.9203,238.9360,84.6811,275.4592,0,U,54653,999,17488,-.49856E-3,-.193E-5,0
ONEWEB-0587,2022-166N,2026-07-12T15:27:46.306080,13.21825770,.0002373,87.9244,238.9053,101.7378,258.4022,0,U,54654,999,17504,-.87226E-4,-.23E-6,0
ONEWEB-0589,2022-166P,2026-07-12T15:08:23.502048,13.21825720,.0001472,87.9224,238.9181,75.9182,284.2115,0,U,54655,999,17490,.85211E-4,.48E-6,0
ONEWEB-0590,2022-166Q,2026-07-12T23:00:30.898080,13.21826234,.0002347,87.9240,238.8447,84.7323,275.4078,0,U,54656,999,17493,.16886E-3,.83E-6,0
ONEWEB-0591,2022-166R,2026-07-12T12:23:38.344992,13.21828589,.0002074,87.9235,238.9448,94.2006,265.9365,0,U,54657,999,17490,.14616086E-3,.73E-6,0
ONEWEB-0592,2022-166S,2026-07-12T16:06:29.949408,13.21824027,.0002031,87.9242,238.8945,95.7123,264.4242,0,U,54658,999,17480,.90161E-4,.5E-6,0
ONEWEB-0593,2022-166T,2026-07-12T12:59:59.997696,13.21825941,.0001904,87.9237,238.9302,97.4417,262.6933,0,U,54659,999,17489,.16428E-3,.81E-6,0
ONEWEB-0594,2022-166U,2026-07-12T15:18:03.551040,13.21824467,.0002163,87.9235,238.9270,100.5567,259.5810,0,U,54660,999,17492,-.12796E-5,.12E-6,0
ONEWEB-0595,2022-166V,2026-07-12T12:55:09.785280,13.21825677,.0002299,87.9240,238.9303,97.6702,262.4693,0,U,54661,999,17488,.12449E-3,.64E-6,0
ONEWEB-0596,2022-166W,2026-07-12T15:56:48.325344,13.21823863,.0002132,87.9238,238.9140,96.9807,263.1569,0,U,54662,999,17490,.43243E-4,.31E-6,0
ONEWEB-0597,2022-166X,2026-07-12T15:30:09.729216,13.21824114,.0001948,87.9234,238.9206,94.6199,265.5157,0,U,54663,999,17490,.15698E-4,.2E-6,0
ONEWEB-0600,2022-166Y,2026-07-12T15:03:32.912928,13.21825608,.0001946,87.9235,238.9158,100.6092,259.5261,0,U,54664,999,17487,.10565E-3,.57E-6,0
ONEWEB-0601,2022-166Z,2026-07-12T13:02:25.071072,13.21824927,.0001809,87.9233,238.9485,93.1688,266.9653,0,U,54665,999,17505,.16387E-3,.81E-6,0
ONEWEB-0602,2022-166AA,2026-07-12T15:50:44.964960,13.21824113,.000189,87.9232,238.9310,102.8528,257.2817,0,U,54666,999,17491,.57839E-4,.37E-6,0
ONEWEB-0603,2022-166AB,2026-07-12T15:59:13.372800,13.21823699,.0001958,87.9254,238.8878,100.9549,259.1805,0,U,54667,999,17484,.81834E-5,.16E-6,0
ONEWEB-0604,2022-166AC,2026-07-12T15:42:16.023168,13.21824521,.0002089,87.9244,238.9074,98.6517,261.4854,0,U,54668,999,17480,.40601E-4,.3E-6,0
ONEWEB-0605,2022-166AD,2026-07-12T22:48:35.494848,13.21824220,.0001897,87.9237,238.8593,81.3734,278.7615,0,U,54669,999,17491,-.1468E-3,-.48E-6,0
ONEWEB-0606,2022-166AE,2026-07-12T16:04:04.778400,13.21825144,.0002166,87.9234,238.9281,100.9626,259.1751,0,U,54670,999,17493,.15701E-3,.78E-6,0
