ONEWEB-0535             
1 54147U 22138AL  26193.85699562  .00000021  00000+0  20404-4 0  9994
2 54147  87.9195 299.8488 0001973  92.1245 268.0113 13.19726326180227
ONEWEB-0536             
1 54148U 22138AM  26194.20412660 -.00000028  00000+0 -10073-3 0  9996
2 54148  87.9174 269.2705 0002811  82.6752 277.4700 13.20772748182732
ONEWEB-0527             
1 54642U 22166A   26193.53494079  .00000077  00000+0  15506-3 0  9993
2 54642  87.9236 238.9522 0002131  97.9354 262.2022 13.21827284174885
ONEWEB-0528             
1 54643U 22166B   26193.53578015  .00000099  00000+0  20822-3 0  9998
2 54643  87.9239 238.9547 0002152 103.1151 257.0223 13.21825889174899
ONEWEB-0539             
1 54644U 22166C   26193.95209578  .00000074  00000+0  14706-3 0  9997
2 54644  87.9241 238.8457 0001871  95.1898 264.9450 13.21824099174944
ONEWEB-0540             
1 54645U 22166D   26193.65618169 -.00000053  00000+0 -15897-3 0  9996
2 54645  87.9231 238.9333 0001931  94.6966 265.4389 13.21824163174898
ONEWEB-0542             
1 54646U 22166E   26193.96220677  .00000055  00000+0  10050-3 0  9990
2 54646  87.9242 238.8425 0001756  93.6231 266.5104 13.21826190174946
ONEWEB-0545             
1 54647U 22166F   26193.54840302  .00000056  00000+0  10291-3 0  9996
2 54647  87.9235 238.9345 0001582  86.5396 273.5919 13.21825761174856
ONEWEB-0580             
1 54648U 22166G   26193.67453706 -.00000013  00000+0 -62026-4 0  9998
2 54648  87.9248 238.9065 0001809  87.8377 272.2964 13.21823979174917
ONEWEB-0582             
1 54649U 22166H   26193.64088911  .00000890  00000+0  21228-2 0  9996
2 54649  87.9238 238.9082 0001991  88.4259 271.7103 13.21853740174888
ONEWEB-0583             
1 54650U 22166J   26193.65269403  .00000011  00000+0 -40099-5 0  9992
2 54650  87.9235 238.9294 0001958  94.8666 265.2691 13.21826009174897
ONEWEB-0584             
1 54651U 22166K   26193.67286720  .00000018  00000+0  12795-4 0  9993
2 54651  87.9236 238.9096 0002063  95.5210 264.6159 13.21824640174880
ONEWEB-0585             
1 54652U 22166L   26193.54501299  .00000088  00000+0  18242-3 0  9990
2 54652  87.9253 238.9216 0002474  91.4713 268.6705 13.21823682174878
ONEWEB-0586             
1 54653U 22166M   26193.63417480 -.00000193  00000+0 -49856-3 0  9993
2 54653  87.9203 238.9360 0002362  84.6811 275.4592 13.21832731174889
ONEWEB-0587             
1 54654U 22166N   26193.64428595 -.00000023  00000+0 -87226-4 0  9990
2 54654  87.9244 238.9053 0002373 101.7378 258.4022 13.21825770175048
ONEWEB-0589             
1 54655U 22166P   26193.63082757  .00000048  00000+0  85211-4 0  9993
2 54655  87.9224 238.9181 0001472  75.9182 284.2115 13.21825720174902
ONEWEB-0590             
1 54656U 22166Q   26193.95869095  .00000083  00000+0  16886-3 0  9997
2 54656  87.9240 238.8447 0002347  84.7323 275.4078 13.21826234174936
ONEWEB-0591             
1 54657U 22166R   26193.51641603  .00000073  00000+0  14616-3 0  9991
2 54657  87.9235 238.9448 0002074  94.2006 265.9365 13.21828589174909
ONEWEB-0592             
1 54658U 22166S   26193.67117997  .00000050  00000+0  90161-4 0  9998
2 54658  87.9242 238.8945 0002031  95.7123 264.4242 13.21824027174808
ONEWEB-0593             
1 54659U 22166T   26193.54166664  .00000081  00000+0  16428-3 0  9997
2 54659  87.9237 238.9302 0001904  97.4417 262.6933 13.21825941174896
ONEWEB-0594             
1 54660U 22166U   26193.63754110  .00000012  00000+0 -12796-5 0  9999
2 54660  87.9235 238.9270 0002163 100.5567 259.5810 13.21824467174925
ONEWEB-0595             
1 54661U 22166V   26193.53830770  .00000064  00000+0  12449-3 0  9995
2 54661  87.9240 238.9303 0002299  97.6702 262.4693 13.21825677174887
ONEWEB-0596             
1 54662U 22166W   26193.66444821  .00000031  00000+0  43243-4 0  9999
2 54662  87.9238 238.9140 0002132  96.9807 263.1569 13.21823863174906
ONEWEB-0597             
1 54663U 22166X   26193.64594594  .00000020  00000+0  15698-4 0  9992
2 54663  87.9234 238.9206 0001948  94.6199 265.5157 13.21824114174908
ONEWEB-0600             
1 54664U 22166Y   26193.62746427  .00000057  00000+0  10565-3 0  9992
2 54664  87.9235 238.9158 0001946 100.6092 259.5261 13.21825608174878
ONEWEB-0601             
1 54665U 22166Z   26193.54334573  .00000081  00000+0  16387-3 0  9994
2 54665  87.9233 238.9485 0001809  93.1688 266.9653 13.21824927175056
ONEWEB-0602             
1 54666U 22166AA  26193.66024265  .00000037  00000+0  57839-4 0  9991
2 54666  87.9232 238.9310 0001890 102.8528 257.2817 13.21824113174910
ONEWEB-0603             
1 54667U 22166AB  26193.66612700  .00000016  00000+0  81834-5 0  9999
2 54667  87.9254 238.8878 0001958 100.9549 259.1805 13.21823699174848
ONEWEB-0604             
1 54668U 22166AC  26193.65435212  .00000030  00000+0  40601-4 0  9992
2 54668  87.9244 238.9074 0002089  98.6517 261.4854 13.21824521174802
ONEWEB-0605             
1 54669U 22166AD  26193.95041082 -.00000048  00000+0 -14680-3 0  9992
2 54669  87.9237 238.8593 0001897  81.3734 278.7615 13.21824220174910
ONEWEB-0606             
1 54670U 22166AE  26193.66949975  .00000078  00000+0  15701-3 0  9996
2 54670  87.9234 238.9281 0002166 100.9626 259.1751 13.21825144174934
